{
  "norad_id": 32265,
  "name": "GLOBALSTAR M066",
  "history": [
    {
      "epoch": "2026-03-28T19:16:32.903040",
      "apogee_km": 1550.8707966420288,
      "perigee_km": 1544.3612171823925,
      "latitude_deg": 49.38798084895674,
      "longitude_deg": 3.603225599974394,
      "semi_major_axis_km": 7925.75300691221,
      "eccentricity": 0.00041066,
      "inclination_deg": 51.9587,
      "raan_deg": 288.6746,
      "arg_perigee_deg": 226.0161,
      "mean_anomaly_deg": 146.9955,
      "mean_motion_rev_day": 12.30387643
    }
  ]
}